NORAD_CAT_ID,OBJECT_NAME,OBJECT_TYPE,EPOCH,MEAN_MOTION,ECCENTRICITY,INCLINATION,RA_OF_ASC_NODE,ARG_OF_PERICENTER,MEAN_ANOMALY,BSTAR,MEAN_MOTION_DOT,MEAN_MOTION_DDOT,TLE_LINE0,TLE_LINE1,TLE_LINE2,SEMIMAJOR_AXIS,PERIOD,APOGEE,PERIGEE,DECAYED
52562.0,STARLINK-3957,PAYLOAD,2022-10-26 03:58:20,15.08829195,0.0002009999999999,53.2169,243.1506,47.1222,312.9938,9.4952e-05,1.223e-05,0.0,0 STARLINK-3957,1 52562U 22051AF  22299.16551241  .00001223  00000-0  94952-4 0  9990,2 52562  53.2169 243.1506 0002010  47.1222 312.9938 15.08829195 25886,6917.913000000001,95.438,541.169,538.388,0.0
52562.0,STARLINK-3957,PAYLOAD,2022-10-26 05:33:43,15.08831599,0.0002029999999999,53.2169,242.8533,46.8915,313.2246,0.00011458,1.535e-05,0.0,0 STARLINK-3957,1 52562U 22051AF  22299.23175094  .00001535  00000-0  11458-3 0  9991,2 52562  53.2169 242.8533 0002030  46.8915 313.2246 15.08831599 25820,6917.906,95.438,541.175,538.367,0.0
52562.0,STARLINK-3957,PAYLOAD,2022-10-26 13:30:38,15.088475400000002,0.0001952,53.2168,241.3654,45.9424,314.1728,1.5086e-05,-4.8e-07,0.0,0 STARLINK-3957,1 52562U 22051AF  22299.56294391 -.00000048  00000-0  15086-4 0  9990,2 52562  53.2168 241.3654 0001952  45.9424 314.1728 15.08847540 25945,6917.857,95.437,541.073,538.372,0.0
52562.0,STARLINK-3957,PAYLOAD,2022-10-27 05:24:30,15.088389,0.0001936,53.2162,238.3913,41.7092,318.4047,0.00027396,4.075e-05,0.0,0 STARLINK-3957,1 52562U 22051AF  22300.22534845  .00004075  00000-0  27396-3 0  9996,2 52562  53.2162 238.3913 0001936  41.7092 318.4047 15.08838900 25974,6917.884,95.438,541.0880000000002,538.409,0.0
52562.0,STARLINK-3957,PAYLOAD,2022-10-27 13:21:25,15.088444,0.000193,53.2163,236.9051,43.5943,316.5202,0.00025361,3.751e-05,0.0,0 STARLINK-3957,1 52562U 22051AF  22300.55654588  .00003751  00000-0  25361-3 0  9999,2 52562  53.2163 236.9051 0001930  43.5943 316.5202 15.08844400 26022,6917.8669999999975,95.437,541.067,538.3969999999998,0.0
52562.0,STARLINK-3957,PAYLOAD,2022-10-28 02:04:30,15.08848204,0.0002101,53.2171,234.5247,47.0929,313.0239,0.00015801,2.228e-05,0.0,0 STARLINK-3957,1 52562U 22051AF  22301.08646463  .00002228  00000-0  15801-3 0  9997,2 52562  53.2171 234.5247 0002101  47.0929 313.0239 15.08848204 26103,6917.855,95.437,541.174,538.2669999999998,0.0
52562.0,STARLINK-3957,PAYLOAD,2022-10-29 01:55:16,15.08864322,0.0002011,53.2168,230.0635,42.7394,317.3754,-0.00016986,-2.992e-05,0.0,0 STARLINK-3957,1 52562U 22051AF  22302.08005582 -.00002992  00000-0 -16986-3 0  9994,2 52562  53.2168 230.0635 0002011  42.7394 317.3754 15.08864322 26321,6917.806,95.436,541.062,538.28,0.0
52562.0,STARLINK-3957,PAYLOAD,2022-10-29 22:35:17,15.0884312,0.0001686999999999,53.2179,226.2029,47.1051,313.0083,4.4653e-05,4.23e-06,0.0,0 STARLINK-3957,1 52562U 22051AF  22302.94117834  .00000423  00000-0  44653-4 0  9991,2 52562  53.2179 226.2029 0001687  47.1051 313.0083 15.08843120 26459,6917.871,95.437,540.903,538.569,0.0
52562.0,STARLINK-3957,PAYLOAD,2022-10-30 04:56:50,15.08838769,0.0002018,53.2168,225.0103,42.0828,318.0319,-8.1185e-05,-1.58e-05,0.0,0 STARLINK-3957,1 52562U 22051AF  22303.20614336 -.00001580  00000-0 -81185-4 0  9998,2 52562  53.2168 225.0103 0002018  42.0828 318.0319 15.08838769 26429,6917.884,95.438,541.145,538.3530000000002,0.0
52562.0,STARLINK-3957,PAYLOAD,2022-10-30 19:15:18,15.08842693,0.0001876999999999,53.2168,222.3341,42.7643,317.3495,8.95e-06,-1.46e-06,0.0,0 STARLINK-3957,1 52562U 22051AF  22303.80229844 -.00000146  00000-0  89500-5 0  9996,2 52562  53.2168 222.3341 0001877  42.7643 317.3495 15.08842693 26515,6917.871999999999,95.437,541.036,538.439,0.0
52562.0,STARLINK-3957,PAYLOAD,2022-10-31 11:09:10,15.08839898,0.0002098,53.2163,219.3577,37.0842,323.0295,-2.0057e-05,-6.07e-06,0.0,0 STARLINK-3957,1 52562U 22051AF  22304.46470166 -.00000607  00000-0 -20057-4 0  9998,2 52562  53.2163 219.3577 0002098  37.0842 323.0295 15.08839898 26617,6917.880999999999,95.438,541.197,538.294,0.0
52562.0,STARLINK-3957,PAYLOAD,2022-11-01 10:59:57,15.08830032,0.0002336999999999,53.2163,214.8961,37.8435,322.2721,9.3009e-05,1.192e-05,0.0,0 STARLINK-3957,1 52562U 22051AF  22305.45830964  .00001192  00000-0  93009-4 0  9999,2 52562  53.2163 214.8961 0002337  37.8435 322.2721 15.08830032 26768,6917.911,95.438,541.393,538.159,0.0
52562.0,STARLINK-3957,PAYLOAD,2022-11-02 04:29:12,15.08837701,0.0002021999999999,53.216,211.627,37.9804,322.1331,0.00010754,1.424e-05,0.0,0 STARLINK-3957,1 52562U 22051AF  22306.18694487  .00001424  00000-0  10754-3 0  9991,2 52562  53.2160 211.6270 0002022  37.9804 322.1331 15.08837701 26941,6917.887,95.438,541.151,538.354,0.0
52562.0,STARLINK-3957,PAYLOAD,2022-11-03 02:44:36,15.08835084,0.0002307,53.2168,207.4618,38.417,321.6986,5.902899999999999e-05,6.51e-06,0.0,0 STARLINK-3957,1 52562U 22051AF  22307.11431415  .00000651  00000-0  59029-4 0  9995,2 52562  53.2168 207.4618 0002307  38.4170 321.6986 15.08835084 27084,6917.895,95.438,541.356,538.164,0.0
52562.0,STARLINK-3957,PAYLOAD,2022-11-03 10:41:31,15.08846297,0.0002086,53.2174,205.9752,43.0361,317.0794,0.00014779,2.065e-05,0.0,0 STARLINK-3957,1 52562U 22051AF  22307.44550459  .00002065  00000-0  14779-3 0  9994,2 52562  53.2174 205.9752 0002086  43.0361 317.0794 15.08846297 27131,6917.861,95.437,541.169,538.283,0.0
52562.0,STARLINK-3957,PAYLOAD,2022-11-03 20:13:49,15.08858262,0.0001963,53.2165,204.1929,45.4844,314.6308,0.00017218,2.454e-05,0.0,0 STARLINK-3957,1 52562U 22051AF  22307.84293482  .00002454  00000-0  17218-3 0  9991,2 52562  53.2165 204.1929 0001963  45.4844 314.6308 15.08858262 27121,6917.825,95.436,541.048,538.332,0.0
52562.0,STARLINK-3957,PAYLOAD,2022-11-04 02:35:22,15.08863286,0.0001929,53.2159,203.0032,47.2113,312.9041,0.00042644,6.51e-05,0.0,0 STARLINK-3957,1 52562U 22051AF  22308.10789559  .00006510  00000-0  42644-3 0  9994,2 52562  53.2159 203.0032 0001929  47.2113 312.9041 15.08863286 27237,6917.809,95.436,541.009,538.34,0.0
52562.0,STARLINK-3957,PAYLOAD,2022-11-04 10:32:18,15.08854527,0.0002213,53.2168,201.5167,46.9354,313.1823,0.00028886,4.314e-05,0.0,0 STARLINK-3957,1 52562U 22051AF  22308.43909844  .00004314  00000-0  28886-3 0  9993,2 52562  53.2168 201.5167 0002213  46.9354 313.1823 15.08854527 27283,6917.8359999999975,95.437,541.232,538.17,0.0
52562.0,STARLINK-3957,PAYLOAD,2022-11-04 20:04:36,15.08850957,0.0002064,53.216,199.7347,52.2887,307.8292,0.00015464,2.174e-05,0.0,0 STARLINK-3957,1 52562U 22051AF  22308.83653873  .00002174  00000-0  15464-3 0  9995,2 52562  53.2160 199.7347 0002064  52.2887 307.8292 15.08850957 27270,6917.847,95.437,541.14,538.284,0.0
52562.0,STARLINK-3957,PAYLOAD,2022-11-05 10:23:05,15.08831925,0.0001966,53.2158,197.057,43.2688,316.8458,-0.00027559,-4.671e-05,0.0,0 STARLINK-3957,1 52562U 22051AF  22309.43270372 -.00004671  00000-0 -27559-3 0  9995,2 52562  53.2158 197.0570 0001966  43.2688 316.8458 15.08831925 27363,6917.905,95.438,541.13,538.41,0.0
52562.0,STARLINK-3957,PAYLOAD,2022-11-05 19:55:25,15.08815548,0.0001234,53.216,195.2727,57.817,302.2942,-0.00045138,-7.459e-05,0.0,0 STARLINK-3957,1 52562U 22051AF  22309.83015153 -.00007459  00000-0 -45138-3 0  9993,2 52562  53.2160 195.2727 0001234  57.8170 302.2942 15.08815548 27499,6917.955,95.439,540.674,538.966,0.0
52562.0,STARLINK-3957,PAYLOAD,2022-11-06 03:52:21,15.08813897,0.000212,53.216,193.7868,42.9693,317.1464,-0.00033424,-5.600000000000001e-05,0.0,0 STARLINK-3957,1 52562U 22051AF  22310.16136561 -.00005600  00000-0 -33424-3 0  9999,2 52562  53.2160 193.7868 0002120  42.9693 317.1464 15.08813897 27475,6917.96,95.439,541.2919999999998,538.359,0.0
52562.0,STARLINK-3957,PAYLOAD,2022-11-06 21:21:37,15.08819604,0.000214,53.2156,190.5164,42.222,317.8936,6.2937e-05,7.13e-06,0.0,0 STARLINK-3957,1 52562U 22051AF  22310.89001476  .00000713  00000-0  62937-4 0  9995,2 52562  53.2156 190.5164 0002140  42.2220 317.8936 15.08819604 27658,6917.943,95.439,541.288,538.327,0.0
52562.0,STARLINK-3957,PAYLOAD,2022-11-07 08:29:19,15.08832284,0.0002102,53.2156,188.4345,43.3825,316.7332,0.00040634,6.183e-05,0.0,0 STARLINK-3957,1 52562U 22051AF  22311.35369818  .00006183  00000-0  40634-3 0  9990,2 52562  53.2156 188.4345 0002102  43.3825 316.7332 15.08832284 27721,6917.904,95.438,541.2230000000002,538.315,0.0
52562.0,STARLINK-3957,PAYLOAD,2022-11-07 21:12:24,15.08867473,0.0002133,53.2155,186.0557,43.8502,316.2659,0.0012817,0.00020185,0.0,0 STARLINK-3957,1 52562U 22051AF  22311.88361500  .00020185  00000-0  12817-2 0  9997,2 52562  53.2155 186.0557 0002133  43.8502 316.2659 15.08867473 27804,6917.795999999999,95.436,541.137,538.186,0.0
52562.0,STARLINK-3957,PAYLOAD,2022-11-08 08:20:05,15.08871597,0.0002281,53.2149,183.9743,46.0566,314.0614,0.00045768,7.01e-05,0.0,0 STARLINK-3957,1 52562U 22051AF  22312.34728625  .00007010  00000-0  45768-3 0  9998,2 52562  53.2149 183.9743 0002281  46.0566 314.0614 15.08871597 27875,6917.784000000002,95.436,541.227,538.071,0.0
52562.0,STARLINK-3957,PAYLOAD,2022-11-09 01:49:19,15.08869028,0.0002211,53.2144,180.7036,52.4299,307.6894,0.0010635999999999,0.00016693,0.0,0 STARLINK-3957,1 52562U 22051AF  22313.07591749  .00016693  00000-0  10636-2 0  9996,2 52562  53.2144 180.7036 0002211  52.4299 307.6894 15.08869028 27983,6917.792,95.436,541.186,538.127,0.0
52562.0,STARLINK-3957,PAYLOAD,2022-11-09 08:10:51,15.08837158,0.0002081,53.2142,179.5137,44.5233,315.5926,0.0010145,0.00015893,0.0,0 STARLINK-3957,1 52562U 22051AF  22313.34087685  .00015893  00000-0  10145-2 0  9991,2 52562  53.2142 179.5137 0002081  44.5233 315.5926 15.08837158 27954,6917.889,95.438,541.194,538.314,0.0
52562.0,STARLINK-3957,PAYLOAD,2022-11-09 20:53:56,15.08841738,0.0002088,53.2138,177.1351,47.2515,312.8653,0.00071801,0.00011158,0.0,0 STARLINK-3957,1 52562U 22051AF  22313.87079839  .00011158  00000-0  71801-3 0  9998,2 52562  53.2138 177.1351 0002088  47.2515 312.8653 15.08841738 28105,6917.875,95.437,541.185,538.2959999999998,0.0
